NORAD_CAT_ID,OBJECT_NAME,OBJECT_TYPE,EPOCH,MEAN_MOTION,ECCENTRICITY,INCLINATION,RA_OF_ASC_NODE,ARG_OF_PERICENTER,MEAN_ANOMALY,BSTAR,MEAN_MOTION_DOT,MEAN_MOTION_DDOT,TLE_LINE0,TLE_LINE1,TLE_LINE2,SEMIMAJOR_AXIS,PERIOD,APOGEE,PERIGEE,DECAYED
53002.0,STARLINK-4121,PAYLOAD,2022-08-04 22:00:00,15.73167974,0.0002355,53.2189,239.1929,28.4056,2.2767,0.00015107,0.00020605,0.0,0 STARLINK-4121,1 53002U 22076S   22216.91667824  .00020605  00000-0  15107-3 0  9993,2 53002  53.2189 239.1929 0002355  28.4056   2.2767 15.73167974  4968,6727.986,91.535,351.436,348.267,0.0
53002.0,STARLINK-4121,PAYLOAD,2022-08-05 14:00:01,15.73199015,0.000259,53.2186,235.8963,25.4067,183.1548,0.00028272,0.00039245,0.0,0 STARLINK-4121,1 53002U 22076S   22217.58335648  .00039245  00000-0  28272-3 0  9990,2 53002  53.2186 235.8963 0002590  25.4067 183.1548 15.73199015  1308,6727.898,91.533,351.506,348.02,0.0
53002.0,STARLINK-4121,PAYLOAD,2022-08-05 22:00:00,15.732193300000002,0.0002348,53.2191,234.2449,26.9313,270.514,0.00012004,0.00016273,0.0,0 STARLINK-4121,1 53002U 22076S   22217.91667824  .00016273  00000-0  12004-3 0  9993,2 53002  53.2191 234.2449 0002348  26.9313 270.5140 15.73219330  1309,6727.84,91.532,351.285,348.125,0.0
53002.0,STARLINK-4121,PAYLOAD,2022-08-06 05:53:20,15.73242871,0.0002488,53.2191,232.6192,30.9009,329.2157,0.00022297,0.00030846,0.0,0 STARLINK-4121,1 53002U 22076S   22218.24537172  .00030846  00000-0  22297-3 0  9999,2 53002  53.2191 232.6192 0002488  30.9009 329.2157 15.73242871  5173,6727.773,91.531,351.31199999999984,347.964,0.0
53002.0,STARLINK-4121,PAYLOAD,2022-08-06 14:00:01,15.73231516,0.0002579,53.2189,230.948,21.0928,94.2405,-0.00050353,-0.00070805,0.0,0 STARLINK-4121,1 53002U 22076S   22218.58334491 -.00070805  00000-0 -50353-3 0  9990,2 53002  53.2189 230.9480 0002579  21.0928  94.2405 15.73231516  5228,6727.805,91.531,351.405,347.935,0.0
53002.0,STARLINK-4121,PAYLOAD,2022-08-06 22:00:00,15.73146265,0.0002269,53.2188,229.2968,20.8999,183.3842,0.00054297,0.00076104,0.0,0 STARLINK-4121,1 53002U 22076S   22218.91667824  .00076104  00000-0  54297-3 0  9993,2 53002  53.2188 229.2968 0002269  20.8999 183.3842 15.73146265  1306,6728.0480000000025,91.536,351.44,348.38699999999994,0.0
53002.0,STARLINK-4121,PAYLOAD,2022-08-07 04:45:32,15.73195062,0.0003013999999999,53.2192,227.9044,17.6912,342.4212,5.7067e-05,7.393e-05,0.0,0 STARLINK-4121,1 53002U 22076S   22219.19829786  .00007393  00000-0  57067-4 0  9994,2 53002  53.2192 227.9044 0003014  17.6912 342.4212 15.73195062  5323,6727.909000000002,91.533,351.802,347.746,0.0
53002.0,STARLINK-4121,PAYLOAD,2022-08-07 14:00:01,15.73229927,0.0002536,53.2183,226.0002,18.4881,3.6083,-0.00011129,-0.00016233,0.0,0 STARLINK-4121,1 53002U 22076S   22219.58334491 -.00016233  00000-0 -11129-3 0  9994,2 53002  53.2183 226.0002 0002536  18.4881   3.6083 15.73229927  1303,6727.81,91.531,351.381,347.969,0.0
53002.0,STARLINK-4121,PAYLOAD,2022-08-07 22:00:00,15.73185892,0.0002213,53.2185,224.3487,19.0577,92.0205,0.00024632,0.0003407,0.0,0 STARLINK-4121,1 53002U 22076S   22219.91667824  .00034070  00000-0  24632-3 0  9990,2 53002  53.2185 224.3487 0002213  19.0577  92.0205 15.73185892  1304,6727.935,91.534,351.289,348.31199999999984,0.0
53002.0,STARLINK-4121,PAYLOAD,2022-08-08 14:00:01,15.73307517,0.0002446,53.2182,221.0515,15.7686,273.2967,-0.00058459,-0.00082257,0.0,0 STARLINK-4121,1 53002U 22076S   22220.58335648 -.00082257  00000-0 -58459-3 0  9997,2 53002  53.2182 221.0515 0002446  15.7686 273.2967 15.73307517  1307,6727.589,91.527,351.099,347.80800000000005,0.0
53002.0,STARLINK-4121,PAYLOAD,2022-08-08 17:21:02,15.73278152,0.0002453,53.2187,220.3611,19.9754,340.1362,0.00027999,0.00038991,0.0,0 STARLINK-4121,1 53002U 22076S   22220.72294147  .00038991  00000-0  27999-3 0  9990,2 53002  53.2187 220.3611 0002453  19.9754 340.1362 15.73278152  5568,6727.672,91.529,351.18800000000016,347.88699999999994,0.0
53002.0,STARLINK-4121,PAYLOAD,2022-08-08 22:00:00,15.73234342,0.0002262,53.2182,219.4003,20.6012,357.4309,-0.00011676,-0.00017001,0.0,0 STARLINK-4121,1 53002U 22076S   22220.91667824 -.00017001  00000-0 -11676-3 0  9993,2 53002  53.2182 219.4003 0002262  20.6012 357.4309 15.73234342  1304,6727.797,91.531,351.184,348.14,0.0
53002.0,STARLINK-4121,PAYLOAD,2022-08-09 06:00:00,15.73215273,0.0002492,53.2179,217.7529,22.3453,84.6382,-0.00074246,-0.00103634,0.0,0 STARLINK-4121,1 53002U 22076S   22221.25001157 -.00103634  00000-0 -74246-3 0  9992,2 53002  53.2179 217.7529 0002492  22.3453  84.6382 15.73215273  5640,6727.852,91.532,351.39300000000014,348.04,0.0
53002.0,STARLINK-4121,PAYLOAD,2022-08-09 14:00:01,15.73164283,0.0002427,53.2176,216.1033,19.2987,176.5713,-0.00023515,-0.00033447,0.0,0 STARLINK-4121,1 53002U 22076S   22221.58334491 -.00033447  00000-0 -23515-3 0  9995,2 53002  53.2176 216.1033 0002427  19.2987 176.5713 15.73164283  1307,6727.996999999999,91.535,351.495,348.22900000000016,0.0
53002.0,STARLINK-4121,PAYLOAD,2022-08-09 22:00:00,15.73099398,0.0002209,53.2179,214.4522,19.8106,264.9344,0.00042146,0.00058691,0.0,0 STARLINK-4121,1 53002U 22076S   22221.91667824  .00058691  00000-0  42146-3 0  9998,2 53002  53.2179 214.4522 0002209  19.8106 264.9344 15.73099398  5750,6728.182,91.539,351.533,348.561,0.0
53002.0,STARLINK-4121,PAYLOAD,2022-08-10 14:00:01,15.73183978,0.0002463999999999,53.2178,211.1552,17.9669,84.4815,8.1513e-05,0.00010826,0.0,0 STARLINK-4121,1 53002U 22076S   22222.58334491  .00010826  00000-0  81513-4 0  9993,2 53002  53.2178 211.1552 0002464  17.9669  84.4815 15.73183978  1305,6727.941,91.534,351.464,348.148,0.0
53002.0,STARLINK-4121,PAYLOAD,2022-08-10 22:00:00,15.73194345,0.0002254999999999,53.2179,209.5044,21.6492,169.7243,0.00056367,0.00079222,0.0,0 STARLINK-4121,1 53002U 22076S   22222.91667824  .00079222  00000-0  56367-3 0  9992,2 53002  53.2179 209.5044 0002255  21.6492 169.7243 15.73194345  1309,6727.911,91.534,351.293,348.259,0.0
53002.0,STARLINK-4121,PAYLOAD,2022-08-11 06:00:02,15.73227049,0.0002481,53.2177,207.857,20.8017,259.564,0.00018462,0.00025399,0.0,0 STARLINK-4121,1 53002U 22076S   22223.25002315  .00025399  00000-0  18462-3 0  9998,2 53002  53.2177 207.8570 0002481  20.8017 259.5640 15.73227049  5960,6727.818,91.532,351.352,348.014,0.0
53002.0,STARLINK-4121,PAYLOAD,2022-08-11 14:00:01,15.73295568,0.0002379999999999,53.2176,206.2069,17.4208,351.8444,-0.00077652,-0.00108665,0.0,0 STARLINK-4121,1 53002U 22076S   22223.58334491 -.00108665  00000-0 -77652-3 0  9993,2 53002  53.2176 206.2069 0002380  17.4208 351.8444 15.73295568  1300,6727.623000000001,91.528,351.089,347.88699999999994,0.0
53002.0,STARLINK-4121,PAYLOAD,2022-08-11 22:00:00,15.73227573,0.0002208,53.2181,204.5559,20.9855,77.2655,4.1704e-05,5.242e-05,0.0,0 STARLINK-4121,1 53002U 22076S   22223.91667824  .00005242  00000-0  41704-4 0  9994,2 53002  53.2181 204.5559 0002208  20.9855  77.2655 15.73227573  6069,6727.816999999999,91.532,351.167,348.196,0.0
53002.0,STARLINK-4121,PAYLOAD,2022-08-12 14:00:01,15.73240786,0.000237,53.2182,201.2581,19.7154,256.4861,-0.00036121,-0.00051104,0.0,0 STARLINK-4121,1 53002U 22076S   22224.58334491 -.00051104  00000-0 -36121-3 0  9995,2 53002  53.2182 201.2581 0002370  19.7154 256.4861 15.73240786  1300,6727.779,91.531,351.23800000000006,348.0490000000001,0.0
53002.0,STARLINK-4121,PAYLOAD,2022-08-12 22:00:01,15.73224256,0.0002191999999999,53.2181,199.6065,19.1586,346.0427,3.022e-05,3.626e-05,0.0,0 STARLINK-4121,1 53002U 22076S   22224.91668981  .00003626  00000-0  30220-4 0  9995,2 53002  53.2181 199.6065 0002192  19.1586 346.0427 15.73224256  1309,6727.826,91.532,351.166,348.216,0.0
53002.0,STARLINK-4121,PAYLOAD,2022-08-13 06:00:02,15.73407637,0.0002589,53.2177,197.9513,16.8329,77.2934,-0.0052727,-0.00689327,0.0,0 STARLINK-4121,1 53002U 22076S   22225.25002315 -.00689327  00000-0 -52727-2 0  9990,2 53002  53.2177 197.9513 0002589  16.8329  77.2934 15.73407637  6275,6727.303000000001,91.521,350.91,347.427,0.0
53002.0,STARLINK-4121,PAYLOAD,2022-08-13 14:00:01,15.72991234,0.0002183,53.2174,196.293,24.9223,158.0036,-0.0046596,-0.00604341,0.0,0 STARLINK-4121,1 53002U 22076S   22225.58334491 -.00604341  00000-0 -46596-2 0  9999,2 53002  53.2174 196.2930 0002183  24.9223 158.0036 15.72991234  1300,6728.49,91.545,351.824,348.88699999999994,0.0
53002.0,STARLINK-4121,PAYLOAD,2022-08-13 22:00:00,15.72560192,0.0002005999999999,53.2174,194.6402,23.8686,247.4987,-0.008572,-0.01053586,0.0,0 STARLINK-4121,1 53002U 22076S   22225.91667824 -.01053586  00000-0 -85720-2 0  9997,2 53002  53.2174 194.6402 0002006  23.8686 247.4987 15.72560192  1304,6729.72,91.57,352.935,350.235,0.0
53002.0,STARLINK-4121,PAYLOAD,2022-08-14 14:00:01,15.71041039,0.0001909999999999,53.2174,191.3474,25.314,60.5291,-0.0091467999999999,-0.01053611,0.0,0 STARLINK-4121,1 53002U 22076S   22226.58334491 -.01053611  00000-0 -91468-2 0  9997,2 53002  53.2174 191.3474 0001910  25.3140  60.5291 15.71041039  6481,6734.058000000001,91.659,357.209,354.636,0.0
53002.0,STARLINK-4121,PAYLOAD,2022-08-14 22:00:00,15.70280452,0.0002049,53.2177,189.7026,27.1868,144.5256,-0.0094131,-0.01050421,0.0,0 STARLINK-4121,1 53002U 22076S   22226.91667824 -.01050421  00000-0 -94131-2 0  9999,2 53002  53.2177 189.7026 0002049  27.1868 144.5256 15.70280452  1302,6736.232,91.703,359.477,356.717,0.0
53002.0,STARLINK-4121,PAYLOAD,2022-08-15 14:00:01,15.687625,0.0001323,53.2174,186.4206,28.4283,312.2837,-0.010056,-0.01052601,0.0,0 STARLINK-4121,1 53002U 22076S   22227.58334491 -.01052601  00000-0 -10056-1 0  9999,2 53002  53.2174 186.4206 0001323  28.4283 312.2837 15.68762500  1307,6740.576,91.792,363.333,361.55,0.0
53002.0,STARLINK-4121,PAYLOAD,2022-08-15 16:00:00,15.68569868,0.0001404,53.2174,186.0105,39.4823,52.0993,-0.010088,-0.01048082,0.0,0 STARLINK-4121,1 53002U 22076S   22227.66667824 -.01048082  00000-0 -10088-1 0  9990,2 53002  53.2174 186.0105 0001404  39.4823  52.0993 15.68569868  6650,6741.128000000002,91.803,363.94,362.047,0.0
